CUTE-1 (CO-55)          
1 27844U 03031E   23245.53403516  .00000402  00000+0  19840-3 0  9995
2 27844  98.6800 251.6658 0008527 260.7623  99.2591 14.22860539 46767
CUBESAT XI-IV (CO-57)   
1 27848U 03031J   23245.57202957  .00000335  00000+0  17022-3 0  9994
2 27848  98.6837 252.0888 0008458 278.0796  81.9422 14.22360406 46553
CUBESAT XI-V            
1 28895U 05043F   23245.61773302  .00001962  00000+0  36672-3 0  9993
2 28895  98.1636  17.1414 0016172 184.2258 175.8812 14.65952387952381
CUTE-1.7+APD II (CO-65) 
1 32785U 08021C   23244.82257879  .00003715  00000+0  36326-3 0  9997
2 32785  97.7129 209.1956 0011186 200.7637 159.3130 14.92902314832321
AAUSAT-II               
1 32788U 08021F   23244.42721361  .00011927  00000+0  83192-3 0  9995
2 32788  97.5659 222.2537 0009964  94.8536 265.3829 15.05497034834577
DELFI-C3 (DO-64)        
1 32789U 08021G   23245.57771246  .00099381  00000+0  18381-2 0  9997
2 32789  97.2958 267.1336 0007417 163.8144 196.3345 15.48657680839310
SEEDS II (CO-66)        
1 32791U 08021J   23245.46508856  .00006835  00000+0  58765-3 0  9996
2 32791  97.6627 215.1554 0013239 143.5705 216.6421 14.97660174833301
SWISSCUBE               
1 35932U 09051B   23245.40554683  .00001187  00000+0  26932-3 0  9999
2 35932  98.5096 117.5604 0008407 122.3924 237.8088 14.57918875740469
BEESAT-1                
1 35933U 09051C   23245.57885509  .00001015  00000+0  23250-3 0  9992
2 35933  98.5022 118.9858 0006494 131.0784 229.0976 14.57803166740566
ITUPSAT1                
1 35935U 09051E   23245.46382405  .00000936  00000+0  21957-3 0  9992
2 35935  98.5120 118.7845 0008662 138.8095 221.3757 14.56838934740214
TISAT 1                 
1 36799U 10035E   23245.42999400  .00005046  00000+0  44214-3 0  9998
2 36799  98.1240 118.0873 0012278  79.0523 281.2078 14.97101244713781
M-CUBED & EXP-1 PRIME   
1 37855U 11061F   23245.23626163  .00026363  00000+0  73778-3 0  9996
2 37855 101.7095 250.6706 0110310 162.8581 197.6418 15.30705538648333
AEROCUBE 4.5A           
1 38767U 12048K   23245.14027118  .00008229  00000+0  55447-3 0  9994
2 38767  64.6641 157.2066 0112834 128.3682 232.7639 15.02178113216949
AEROCUBE 4.5B           
1 38768U 12048L   23245.33376510  .00014825  00000+0  82010-3 0  9994
2 38768  64.6625  97.8362 0091657 121.0899 239.9257 15.10492456217617
STRAND-1                
1 39090U 13009E   23245.50465213  .00000383  00000+0  14747-3 0  9995
2 39090  98.3877  76.7432 0009716  39.9680 320.2219 14.35673348550814
BRITE-AUSTRIA           
1 39091U 13009F   23245.51006589  .00000229  00000+0  94384-4 0  9999
2 39091  98.3909  75.9868 0011295  45.6750 314.5360 14.35536076550844
BEESAT-3                
1 39135U 13015F   23245.68255050  .00059482  00000+0  10067-2 0  9991
2 39135  64.8536  75.4687 0017654 247.5637 112.3636 15.51041706574355
BEESAT-2                
1 39136U 13015G   23245.52667222  .00047579  00000+0  93824-3 0  9990
2 39136  64.8640  89.1306 0027759 263.1517  96.6465 15.46498299573619
NEE-01 PEGASO           
1 39151U 13018B   23245.24187294  .00002796  00000+0  34849-3 0  9999
2 39151  98.0153 355.5882 0014702 260.3511  99.6041 14.83203069559100
ESTCUBE 1               
1 39161U 13021C   23245.71835499  .00001963  00000+0  30137-3 0  9994
2 39161  97.8664 315.7778 0010578  83.0981 277.1431 14.74632686554590
POPACS 1                
1 39268U 13055D   23245.39070031  .00017848  00000+0  38767-3 0  9992
2 39268  80.9899 117.2844 0487536 286.9845  67.8487 14.71341592517779
POPACS 2                
1 39269U 13055E   23245.26570898  .00013726  00000+0  34368-3 0  9999
2 39269  81.0087 190.1798 0599564 116.5431 249.8502 14.44885572513703
POPACS 3                
1 39270U 13055F   23245.38091679  .00006231  00000+0  18128-3 0  9998
2 39270  81.0100 232.2899 0655635 235.0960 118.6933 14.29891663491591
ZACUBE-1 (TSHEPISOSAT)  
1 39417U 13066B   23245.16835538  .00005029  00000+0  57186-3 0  9990
2 39417  97.6922 204.1897 0055434  35.9915 324.5013 14.85554021528621
WNISAT-1                
1 39423U 13066H   23245.55556475  .00000968  00000+0  19657-3 0  9998
2 39423  97.6947  98.1157 0171853 194.2328 165.3997 14.54336913518687
TRITON-1                
1 39427U 13066M   23245.77124824  .00003189  00000+0  47891-3 0  9994
2 39427  97.8324 168.7231 0105570 289.3639  69.6179 14.71513827523957
DELFI-N3XT              
1 39428U 13066N   23245.75062588  .00005788  00000+0  82007-3 0  9996
2 39428  97.8300 167.8641 0107548 300.6731  58.3912 14.73479523523736
GOMX-1                  
1 39430U 13066Q   23245.73149154  .00002468  00000+0  42916-3 0  9999
2 39430  97.7679 132.3302 0146348  87.9539 273.8415 14.62140347520860
CUBEBUG-2 (LO-74)       
1 39440U 13066AA  23245.73206393  .00003159  00000+0  40507-3 0  9991
2 39440  97.7767 191.9979 0075838 133.9168 226.8338 14.79931906526826
NEE-02 KRYSAOR          
1 39441U 13066AB  23245.27403608  .00001988  00000+0  27011-3 0  9992
2 39441  97.7872 188.2447 0078314 152.8969 207.6364 14.77810305525231
FUNCUBE-1 (AO-73)       
1 39444U 13066AE  23245.37610398  .00006459  00000+0  70145-3 0  9996
2 39444  97.6785 207.0105 0053057  20.3291 340.0021 14.87412795527114
UWE-3                   
1 39446U 13066AG  23245.31603054  .00003715  00000+0  45061-3 0  9994
2 39446  97.7408 197.7114 0066741  86.8595 274.0253 14.82577920525851
BRITE-CA1 (TORONTO)     
1 40020U 14033L   23245.65098347  .00001069  00000+0  18466-3 0  9998
2 40020  97.8369  28.9401 0083817 293.4206  65.8202 14.68176023492621
DUCHIFAT-1              
1 40021U 14033M   23245.34324003  .00008251  00000+0  68152-3 0  9993
2 40021  98.0676 211.8720 0012663  27.5430 332.6460 14.99180490500740
NANOSATC-BR1            
1 40024U 14033Q   23245.35198457  .00007154  00000+0  62737-3 0  9993
2 40024  98.0335 202.4861 0011412  35.9165 324.2820 14.96910937499957
QB50P1                  
1 40025U 14033R   23245.54289507  .00005975  00000+0  55554-3 0  9990
2 40025  98.0017 193.7422 0012495  46.4216 313.8039 14.94674803499690
QB50P2                  
1 40032U 14033Y   23245.57638513  .00005258  00000+0  50057-3 0  9993
2 40032  97.9699 187.1718 0011842  44.0605 316.1556 14.93802260499529
PERSEUS-M2              
1 40037U 14033AD  23245.71130688  .00001938  00000+0  21313-3 0  9998
2 40037  97.9061 171.2266 0015351  68.1245 292.1602 14.88708502499382
PERSEUS-M1              
1 40039U 14033AF  23245.21217306  .00002141  00000+0  23675-3 0  9998
2 40039  97.8909 167.5481 0015174  69.0473 291.2365 14.88379094498674
POLYITAN-1              
1 40042U 14033AJ  23245.29562766  .00007102  00000+0  64111-3 0  9995
2 40042  98.0141 195.6031 0014192  38.4894 321.7335 14.95751683499569
TIGRISAT                
1 40043U 14033AK  23245.43276717  .00002715  00000+0  38314-3 0  9991
2 40043  97.6713  56.5953 0057808 161.6079 198.7240 14.76845265494812
AEROCUBE 6A             
1 40045U 14033AM  23245.48908980  .00004577  00000+0  60490-3 0  9990
2 40045  97.6598  66.5554 0054790 145.2998 215.1809 14.79395042495056
AEROCUBE 6B             
1 40046U 14033AN  23245.55006346  .00004691  00000+0  60915-3 0  9993
2 40046  97.6548  65.1151 0053466 141.8449 218.6568 14.80171442495094
UKUBE-1                 
1 40074U 14037F   23245.68310039  .00005154  00000+0  55376-3 0  9999
2 40074  98.3366 154.2491 0002600 316.6238  43.4773 14.89026684495784
BRITE-PL2 (HEWELIUSZ)   
1 40119U 14049B   23245.70739790  .00002151  00000+0  24634-3 0  9991
2 40119  97.8827 342.2072 0015545 230.1118 129.8732 14.86917569489777
GRIFEX                  
1 40379U 15003D   23245.62048640  .00056693  00000+0  99400-3 0  9991
2 40379  99.0802 201.4659 0069539   5.9364 354.2689 15.47656481475335
CP10 (EXOCUBE)          
1 40380U 15003E   23245.34615179  .00035963  00000+0  88241-3 0  9997
2 40380  99.0840 189.5840 0091173  43.2577 317.5774 15.36343030474569
EXACTVIEW 9             
1 40936U 15052G   23243.11099261  .00002641  00000+0  26350-3 0  9999
2 40936   6.0030 272.0785 0010759 270.7790  89.1105 14.78858219428368
AEROCUBE 5C             
1 40965U 15058B   23244.89724404  .00004697  00000+0  50872-3 0  9996
2 40965  64.7732 167.4818 0165789  43.6989 317.7104 14.79844077214196
AEROCUBE 7              
1 40966U 15058C   23245.19254689  .00005813  00000+0  61291-3 0  9992
2 40966  64.7718 162.3908 0163051  43.2879 318.0905 14.80900885214262
GALASSIA                
1 41170U 15077E   23245.56123669  .00074015  00000+0  13112-2 0  9993
2 41170  14.9875 359.2437 0007297  93.2504 266.8656 15.48376681428035
VELOX-II                
1 41171U 15077F   23244.85414787  .00025574  00000+0  80213-3 0  9992
2 41171  14.9896 119.2191 0005156 207.1049 152.9005 15.30750060427010
HORYU-4                 
1 41340U 16012D   23245.74193680  .00007783  00000+0  47337-3 0  9997
2 41340  31.0042  44.0602 0011133 303.4301  56.5272 15.09043663414444
E-ST@R-II               
1 41459U 16025D   23245.65867535  .00036639  00000+0  92956-3 0  9998
2 41459  98.1771  95.0838 0096831 187.6971 172.2790 15.34823375404767
AAUSAT 4                
1 41460U 16025E   23245.61692868  .01683895  19073-2  25311-2 0  9997
2 41460  98.1331 112.5652 0016777 137.1389 223.1201 16.04864516405937
BEESAT-4                
1 41619U 16040W   23245.67582756  .00394640  00000+0  15560-2 0  9998
2 41619  97.1393 297.0058 0004428 216.8366 143.2602 15.85857715389039
RAVAN                   
1 41849U 16067B   23245.40049777  .00007716  00000+0  51957-3 0  9990
2 41849  98.0453  43.1670 0014887 289.1237  70.8378 15.06916359372390
CELTEE 1                
1 41850U 16067C   23245.36149110  .00005037  00000+0  38579-3 0  9998
2 41850  98.0752  36.5369 0001504  92.7632 267.3764 15.02340415372004
OPTICUBE 04             
1 41851U 16067D   23245.31446927  .00002731  00000+0  22293-3 0  9994
2 41851  98.0654  34.2913 0014631 299.0579  60.9178 15.00253149371890
AEROCUBE 8D             
1 41852U 16067E   23245.37662401  .00006194  00000+0  46727-3 0  9993
2 41852  98.0765  35.7450 0005818 357.1800   2.9390 15.02810442371952
AEROCUBE 8C             
1 41853U 16067F   23245.37469772  .00006238  00000+0  47176-3 0  9998
2 41853  98.0569  35.0772 0008957 291.7451  68.2819 15.02697710371948
PROMETHEUS 2-1          
1 41854U 16067G   23245.68461052  .00009069  00000+0  60738-3 0  9990
2 41854  98.0783  39.1011 0015472 317.9265  42.0772 15.07056449372157
PROMETHEUS 2-3          
1 41855U 16067H   23245.41304580  .00009123  00000+0  61166-3 0  9991
2 41855  98.0703  38.5953 0013212 329.2055  30.8395 15.07038898372111
INS-1B                  
1 41954U 17008G   23245.65911758  .00197669  00000+0  13228-2 0  9992
2 41954  97.1861 307.8817 0002307 142.9213 217.2211 15.74709076364998
DIDO-2                  
1 42000U 17008BE  23245.68336903  .00024294  00000+0  54858-3 0  9999
2 42000  97.1934 300.6681 0006993 114.1037 246.0943 15.43170943363871
PEASSS                  
1 42015U 17008BV  23245.42629723  .00085275  00000+0  97522-3 0  9993
2 42015  97.1969 309.6156 0003530 115.8499 244.3123 15.61875227364874
UCLSAT                  
1 42765U 17036A   23245.66930860  .00090669  00000+0  10195-2 0  9992
2 42765  97.1314 284.6136 0006855 151.7194 208.4438 15.62275295345345
AALTO-1                 
1 42775U 17036L   23245.35004031  .00021485  00000+0  56513-3 0  9996
2 42775  97.1468 273.3017 0009781 172.4880 187.6514 15.38539917344374
URSA MAIOR              
1 42776U 17036M   23245.56238296  .00024706  00000+0  59814-3 0  9998
2 42776  97.1477 275.1064 0009647 167.1753 192.9742 15.41047245344495
DIAMOND RED             
1 42783U 17036U   23245.55998949  .00032386  00000+0  68471-3 0  9995
2 42783  97.1442 278.7880 0008073 165.9557 194.1918 15.45058968344723
PEGASUS                 
1 42784U 17036V   23244.67673667  .00061319  00000+0  91775-3 0  9996
2 42784  97.1395 281.5143 0007555 156.0813 204.0794 15.54753509344833
DIAMOND GREEN           
1 42785U 17036W   23245.04384255  .00036457  00000+0  73079-3 0  9993
2 42785  97.1430 278.6200 0007868 166.2383 193.9083 15.46598790344733
DIAMOND BLUE            
1 42786U 17036X   23245.80805759  .00057033  00000+0  11650-2 0  9994
2 42786  97.1438 279.2570 0008057 163.8784 196.2723 15.45945679344769
SUCHAI                  
1 42788U 17036Z   23245.63700061  .00237924  00000+0  14384-2 0  9993
2 42788  97.1300 287.8979 0006976 161.5791 198.5730 15.76912643345413
SKCUBE                  
1 42789U 17036AA  23245.67937351  .00097334  00000+0  10444-2 0  9994
2 42789  97.1332 285.3809 0007539 151.6103 208.5569 15.63451986345176
ROBUSTA 1B              
1 42792U 17036AD  23245.57588339  .00164446  00000+0  12656-2 0  9991
2 42792  97.1296 287.1093 0006711 152.8974 207.2641 15.71483416345296
CICERO 6                
1 42793U 17036AE  23245.56554299  .00027324  00000+0  62703-3 0  9991
2 42793  97.1427 278.6836 0007383 165.7615 194.3843 15.42661016344813
CORVUS BC2              
1 42846U 17042X   23245.50455204  .00003347  00000+0  30968-3 0  9994
2 42846  97.3830  82.1692 0007681 321.9689  38.0990 14.95141595334276
CORVUS BC1              
1 42847U 17042Y   23245.62478410  .00003110  00000+0  28742-3 0  9997
2 42847  97.3821  82.6455 0007383 319.3513  40.7157 14.95233850334300
MIRATA                  
1 43015U 17073C   23245.11940856  .00013658  00000+0  82646-3 0  9992
2 43015  97.6230 130.7081 0205905 157.2871 203.7625 14.94666823312970
MAKERSAT 0              
1 43016U 17073D   23245.65809043  .00007414  00000+0  48836-3 0  9990
2 43016  97.6195 128.7981 0221830 166.7855 193.9308 14.89766268312830
CORVUS BC3              
1 43118U 18004H   23245.46002577  .00025104  00000+0  58888-3 0  9998
2 43118  97.3197 319.8748 0006369 213.3381 146.7466 15.42028330313931
CICERO 7                
1 43143U 18004AJ  23245.70830328  .00093967  00000+0  90596-3 0  9990
2 43143  97.3226 334.8971 0003572 198.5705 161.5425 15.66201173314849
GOMX-4B                 
1 43196U 18015E   23245.38806533  .00018190  00000+0  47153-3 0  9991
2 43196  97.5877  38.7602 0012577 290.0668  69.9223 15.39000268310815
GOMX-4A                 
1 43197U 18015F   23245.67091085  .00021674  00000+0  49495-3 0  9994
2 43197  97.5873  41.5740 0011830 281.7284  78.2636 15.42816810311037
CUBEBEL-1 (BSUSAT-1)    
1 43666U 18083E   23245.74954974  .00043252  00000+0  95770-3 0  9996
2 43666  97.3738 278.0798 0008913 183.6138 176.5047 15.43623263269143
CICERO 10               
1 43690U 18088A   23245.66176302  .00024883  00000+0  62957-3 0  9990
2 43690  85.0325  20.0256 0008714 304.2852  55.7573 15.39592128267389
PROXIMA I               
1 43694U 18088E   23245.33516622  .00031680  00000+0  71103-3 0  9997
2 43694  85.0261  15.5784 0010701 263.1325  96.8711 15.43173574267660
PROXIMA II              
1 43696U 18088G   23245.09687150  .00032989  00000+0  74489-3 0  9990
2 43696  85.0262  15.8048 0010780 264.2327  95.7698 15.42989415267615
SIRION PATHFINDER-2     
1 43759U 18099B   23245.42111313  .00003353  00000+0  27903-3 0  9994
2 43759  97.5644 304.9051 0013021 215.1841 144.8524 14.99278508259193
CORVUS BC4              
1 43767U 18099K   23245.41306811  .00003375  00000+0  28478-3 0  9993
2 43767  97.5593 302.7318 0010259 220.1074 139.9393 14.98761127259092
MOVE-II                 
1 43780U 18099Y   23245.45296362  .00010800  00000+0  75794-3 0  9995
2 43780  97.5651 307.9018 0007557 243.5519 116.4932 15.05310255259355
SPACEBEE-7              
1 43816U 18099BL  23245.63712381  .00007783  00000+0  57058-3 0  9998
2 43816  97.5918 308.9984 0011785 184.9864 175.1246 15.03738232258944
SPACEBEE-5              
1 43817U 18099BM  23245.70088108  .00044342  00000+0  18590-2 0  9999
2 43817  97.5847 318.2434 0005015 173.8716 186.2583 15.23355055259478
SPACEBEE-6              
1 43818U 18099BN  23245.65639130  .00013934  00000+0  90690-3 0  9996
2 43818  97.5836 311.4317 0011472 202.2032 157.8701 15.08019009259233
SHIELDS 1               
1 43850U 18104B   23245.69577844  .00007812  00000+0  26852-3 0  9993
2 43850  85.0246 117.6123 0015217  72.4788 287.8120 15.29797634261954
STF-1                   
1 43852U 18104D   23245.37942258  .00045441  00000+0  83737-3 0  9990
2 43852  85.0192 114.2239 0011705  69.9404 290.3112 15.48886267262325
ZACUBE-2                
1 43907U 18111AH  23245.77951128  .00034793  00000+0  73399-3 0  9990
2 43907  97.1236 123.7335 0010564 295.5470  64.4687 15.45083615261119
LUME 1                  
1 43908U 18111AJ  23245.51891204  .00047931  00000+0  77797-3 0  9995
2 43908  97.1231 127.9045 0007616 277.1526  82.8861 15.52565664261363
MOVE-IIB                
1 44398U 19038N   23245.68281133  .00078416  00000+0  13552-2 0  9990
2 44398  97.6633 232.7505 0011128  40.4022 319.8053 15.50636367230638
SONATE                  
1 44400U 19038Q   23245.41151635  .00011893  00000+0  50645-3 0  9999
2 44400  97.6910 224.7636 0021582  48.1324 312.1750 15.22925185229985
LUCKY-7                 
1 44406U 19038W   23245.46834450  .00016475  00000+0  63245-3 0  9994
2 44406  97.6865 226.4348 0019695  43.1885 317.0894 15.26362691230108
BEESAT 9                
1 44412U 19038AC  23245.42114122  .00030116  00000+0  91239-3 0  9996
2 44412  97.6792 228.8414 0015709  43.9292 316.3196 15.33985052229987
JAISAT-1                
1 44419U 19038F   23245.68258217  .00029244  00000+0  87885-3 0  9997
2 44419  97.6786 230.2256 0014857  40.0365 320.1969 15.34260757230409
DUCHIFAT-3              
1 44854U 19089C   23245.66664063  .00009247  00000+0  60005-3 0  9990
2 44854  36.9626 347.7796 0008175 233.3903 126.6090 15.07583753204527
EYESAT-NANO             
1 44877U 19092E   23245.82469175  .00179527  00000+0  28857-2 0  9991
2 44877  97.4552  78.5306 0006596 213.2502 146.8337 15.52344873206107
M2 PATHFINDER           
1 45727U 20037E   23245.53881065  .00002711  00000+0  25600-3 0  9995
2 45727  97.7627  59.3418 0012233  12.4445 347.7075 14.94522207172791
NETSAT-4                
1 46504U 20068U   23245.47586358  .00007508  00000+0  48334-3 0  9991
2 46504  97.7667 192.0892 0008892 266.1430  93.8781 15.08629695160557
NETSAT-3                
1 46505U 20068V   23245.51927807  .00006791  00000+0  44037-3 0  9994
2 46505  97.7654 191.9128 0007757 276.9337  83.1008 15.08406751160569
NETSAT-1                
1 46506U 20068W   23245.51459327  .00005512  00000+0  36260-3 0  9991
2 46506  97.7666 191.7549 0006314 290.7709  69.2842 15.07969762160558
NETSAT-2                
1 46507U 20068X   23245.27850224  .00007493  00000+0  48363-3 0  9993
2 46507  97.7653 191.6130 0005939 300.1056  59.9582 15.08551972160472
SAI-1 NANOCONNECT-2     
1 47701U 21015C   23245.49887099  .00089005  00000+0  11342-2 0  9992
2 47701  97.3775 331.0603 0005674 284.5289  75.5337 15.59007022140157
WILDTRACKCUBE-SIMBA     
1 47941U 21022K   23245.75180114  .00007755  00000+0  43561-3 0  9990
2 47941  97.4862 141.4290 0020587  70.8529 289.4928 15.13409752134734
BEESAT-6                
1 47957U 21022AB  23245.69342966  .00022057  00000+0  95485-3 0  9999
2 47957  97.4830 144.0706 0017841  64.9903 295.3183 15.22286955134711
SMOG-1                  
1 47964U 21022AJ  23245.66731345  .00024088  00000+0  98520-3 0  9996
2 47964  97.4877 146.3330 0015839  53.2664 307.0025 15.24223302133868
BCCSAT-1                
1 48041U 21022AK  23244.96715774  .00019645  00000+0  87277-3 0  9993
2 48041  97.4879 144.2645 0013864  57.4389 302.8184 15.21484834133640
BEESAT-5                
1 48083U 21022AM  23245.71371324  .00025941  00000+0  10625-2 0  9990
2 48083  97.4724 144.3876 0017234  63.4629 296.8372 15.24138326133883
BEESAT-7                
1 48084U 21022AN  23245.66306253  .00025287  00000+0  10718-2 0  9990
2 48084  97.4827 144.2232 0017424  64.0710 296.2320 15.22982922133448
BEESAT-8                
1 48085U 21022AP  23245.68130374  .00011259  00000+0  55650-3 0  9991
2 48085  97.4887 143.2845 0018787  66.2351 294.0850 15.17854055133939
LEDSAT                  
1 49069U 21073D   23245.66964532  .00009806  00000+0  51732-3 0  9991
2 49069  97.4764 315.2822 0022864 208.7492 151.2481 15.15525287112630
SPORT                   
1 55129U 98067UW  23245.49803954  .00188425  00000+0  74713-3 0  9992
2 55129  51.6234 279.2557 0008573  31.7498 328.4021 15.85601419 38738
